[{"OBJECT_NAME":"STARLINK-30519","OBJECT_ID":"2023-151X","EPOCH":"2026-03-09T22:00:01.999584","MEAN_MOTION":15.26728117,"ECCENTRICITY":0.00020054,"INCLINATION":43.0023,"RA_OF_ASC_NODE":349.4808,"ARG_OF_PERICENTER":274.1728,"MEAN_ANOMALY":210.6562,"EPHEMERIS_TYPE":0,"CLASSIFICATION_TYPE":"U","NORAD_CAT_ID":57985,"ELEMENT_SET_NO":999,"REV_AT_EPOCH":578,"BSTAR":0.00017509394,"MEAN_MOTION_DOT":4.438e-5,"MEAN_MOTION_DDOT":0},{"OBJECT_NAME":"REAL","OBJECT_ID":"2025-154G","EPOCH":"2026-03-09T17:20:09.670560","MEAN_MOTION":15.28408058,"ECCENTRICITY":0.00018528,"INCLINATION":97.4133,"RA_OF_ASC_NODE":137.2581,"ARG_OF_PERICENTER":118.5876,"MEAN_ANOMALY":241.555,"EPHEMERIS_TYPE":0,"CLASSIFICATION_TYPE":"U","NORAD_CAT_ID":64875,"ELEMENT_SET_NO":999,"REV_AT_EPOCH":3483,"BSTAR":0.0008290401,"MEAN_MOTION_DOT":0.00022901,"MEAN_MOTION_DDOT":0}]
